start=new Date('2022-12-25T00:00:00.000Z').valueOf();
sats=[{"PERIAPSIS":"561.747","BSTAR":"0.00013715000000","DECAY_DATE":null,"COUNTRY_CODE":"US","FILE":"3721442","MEAN_MOTION_DOT":"0.00001703","REV_AT_EPOCH":"1748","INCLINATION":"97.6539","EPOCH":"2022-12-24T05:49:11.790912","APOAPSIS":"564.307","RCS_SIZE":"LARGE","SEMIMAJOR_AXIS":"6941.162","MEAN_ANOMALY":"254.5535","CENTER_NAME":"EARTH","RA_OF_ASC_NODE":"236.8090","MEAN_MOTION_DDOT":"0.0000000000000","TIME_SYSTEM":"UTC","TLE_LINE1":"1 53687U 22105AR  22358.24249758  .00001703  00000-0  13715-3 0  9991","MEAN_MOTION":"15.01255219","NORAD_CAT_ID":"53687","LAUNCH_DATE":"2022-08-31","MEAN_ELEMENT_THEORY":"SGP4","PERIOD":"95.920","TLE_LINE2":"2 53687  97.6539 236.8090 0001844 105.5893 254.5535 15.01255219 17486","OBJECT_NAME":"STARLINK-4569","REF_FRAME":"TEME","ARG_OF_PERICENTER":"105.5893","CLASSIFICATION_TYPE":"U","OBJECT_TYPE":"PAYLOAD","ECCENTRICITY":"0.00018440","GP_ID":"221382870","SITE":"AFWTR","ELEMENT_SET_NO":"999","EPHEMERIS_TYPE":"0","OBJECT_ID":"2022-105AR"},{"MEAN_MOTION":"15.01279750","TLE_LINE1":"1 53688U 22105AS  22358.90346092  .00009594  00000-0  75016-3 0  9992","MEAN_ELEMENT_THEORY":"SGP4","PERIOD":"95.918","LAUNCH_DATE":"2022-08-31","NORAD_CAT_ID":"53688","OBJECT_TYPE":"PAYLOAD","ECCENTRICITY":"0.00017840","TLE_LINE2":"2 53688  97.6537 237.4605 0001784  88.0404 272.1025 15.01279750 17587","OBJECT_NAME":"STARLINK-4571","ARG_OF_PERICENTER":"88.0404","REF_FRAME":"TEME","CLASSIFICATION_TYPE":"U","ELEMENT_SET_NO":"999","SITE":"AFWTR","EPHEMERIS_TYPE":"0","OBJECT_ID":"2022-105AS","GP_ID":"221381836","COUNTRY_CODE":"US","FILE":"3721442","MEAN_MOTION_DOT":"0.00009594","PERIAPSIS":"561.713","DECAY_DATE":null,"BSTAR":"0.00075016000000","INCLINATION":"97.6537","EPOCH":"2022-12-24T21:40:59.023488","REV_AT_EPOCH":"1758","RA_OF_ASC_NODE":"237.4605","MEAN_MOTION_DDOT":"0.0000000000000","TIME_SYSTEM":"UTC","RCS_SIZE":"LARGE","APOAPSIS":"564.189","SEMIMAJOR_AXIS":"6941.086","MEAN_ANOMALY":"272.1025","CENTER_NAME":"EARTH"},{"INCLINATION":"97.6547","EPOCH":"2022-12-24T21:43:38.799552","REV_AT_EPOCH":"1758","COUNTRY_CODE":"US","FILE":"3721442","MEAN_MOTION_DOT":"0.00000866","PERIAPSIS":"561.735","DECAY_DATE":null,"BSTAR":"0.00007198000000","RA_OF_ASC_NODE":"237.4611","MEAN_MOTION_DDOT":"0.0000000000000","TIME_SYSTEM":"UTC","APOAPSIS":"564.269","RCS_SIZE":"LARGE","SEMIMAJOR_AXIS":"6941.137","CENTER_NAME":"EARTH","MEAN_ANOMALY":"270.6255","MEAN_ELEMENT_THEORY":"SGP4","PERIOD":"95.919","NORAD_CAT_ID":"53689","LAUNCH_DATE":"2022-08-31","MEAN_MOTION":"15.01263206","TLE_LINE1":"1 53689U 22105AT  22358.90531018  .00000866  00000-0  71980-4 0  9997","ELEMENT_SET_NO":"999","SITE":"AFWTR","OBJECT_ID":"2022-105AT","EPHEMERIS_TYPE":"0","GP_ID":"221382043","OBJECT_TYPE":"PAYLOAD","ECCENTRICITY":"0.00018260","TLE_LINE2":"2 53689  97.6547 237.4611 0001826  89.5179 270.6255 15.01263206 17585","OBJECT_NAME":"STARLINK-4562","ARG_OF_PERICENTER":"89.5179","REF_FRAME":"TEME","CLASSIFICATION_TYPE":"U"},{"MEAN_MOTION":"15.01256772","TLE_LINE1":"1 53690U 22105AU  22358.23509553  .00002094  00000-0  16762-3 0  9995","PERIOD":"95.920","MEAN_ELEMENT_THEORY":"SGP4","NORAD_CAT_ID":"53690","LAUNCH_DATE":"2022-08-31","ECCENTRICITY":"0.00023720","OBJECT_TYPE":"PAYLOAD","CLASSIFICATION_TYPE":"U","ARG_OF_PERICENTER":"130.3091","REF_FRAME":"TEME","TLE_LINE2":"2 53690  97.6542 236.8008 0002372 130.3091 229.8341 15.01256772 17481","OBJECT_NAME":"STARLINK-4570","OBJECT_ID":"2022-105AU","EPHEMERIS_TYPE":"0","SITE":"AFWTR","ELEMENT_SET_NO":"999","GP_ID":"221382663","MEAN_MOTION_DOT":"0.00002094","FILE":"3721442","COUNTRY_CODE":"US","DECAY_DATE":null,"BSTAR":"0.00016762000000","PERIAPSIS":"561.375","EPOCH":"2022-12-24T05:38:32.253792","INCLINATION":"97.6542","REV_AT_EPOCH":"1748","TIME_SYSTEM":"UTC","MEAN_MOTION_DDOT":"0.0000000000000","RA_OF_ASC_NODE":"236.8008","SEMIMAJOR_AXIS":"6941.157","CENTER_NAME":"EARTH","MEAN_ANOMALY":"229.8341","APOAPSIS":"564.668","RCS_SIZE":"LARGE"},{"GP_ID":"221383283","OBJECT_ID":"2022-105AV","EPHEMERIS_TYPE":"0","SITE":"AFWTR","ELEMENT_SET_NO":"999","CLASSIFICATION_TYPE":"U","ARG_OF_PERICENTER":"101.3732","REF_FRAME":"TEME","OBJECT_NAME":"STARLINK-4560","TLE_LINE2":"2 53691  97.6554 236.8034 0001975 101.3732 258.7714 15.01261812 17488","ECCENTRICITY":"0.00019750","OBJECT_TYPE":"PAYLOAD","LAUNCH_DATE":"2022-08-31","NORAD_CAT_ID":"53691","PERIOD":"95.919","MEAN_ELEMENT_THEORY":"SGP4","TLE_LINE1":"1 53691U 22105AV  22358.23533707  .00002735  00000-0  21744-3 0  9992","MEAN_MOTION":"15.01261812","SEMIMAJOR_AXIS":"6941.141","MEAN_ANOMALY":"258.7714","CENTER_NAME":"EARTH","APOAPSIS":"564.377","RCS_SIZE":"LARGE","TIME_SYSTEM":"UTC","MEAN_MOTION_DDOT":"0.0000000000000","RA_OF_ASC_NODE":"236.8034","REV_AT_EPOCH":"1748","EPOCH":"2022-12-24T05:38:53.122848","INCLINATION":"97.6554","DECAY_DATE":null,"BSTAR":"0.00021744000000","PERIAPSIS":"561.635","MEAN_MOTION_DOT":"0.00002735","FILE":"3721442","COUNTRY_CODE":"US"},{"DECAY_DATE":null,"BSTAR":"0.00031383000000","PERIAPSIS":"561.263","FILE":"3721189","COUNTRY_CODE":"US","MEAN_MOTION_DOT":"0.00003973","REV_AT_EPOCH":"1751","EPOCH":"2022-12-24T10:23:48.843744","INCLINATION":"97.6540","APOAPSIS":"564.824","RCS_SIZE":"LARGE","SEMIMAJOR_AXIS":"6941.178","MEAN_ANOMALY":"308.7051","CENTER_NAME":"EARTH","RA_OF_ASC_NODE":"236.9965","TIME_SYSTEM":"UTC","MEAN_MOTION_DDOT":"0.0000000000000","TLE_LINE1":"1 53692U 22105AW  22358.43320421  .00003973  00000-0  31383-3 0  9997","MEAN_MOTION":"15.01249785","LAUNCH_DATE":"2022-08-31","NORAD_CAT_ID":"53692","MEAN_ELEMENT_THEORY":"SGP4","PERIOD":"95.920","ARG_OF_PERICENTER":"51.4403","REF_FRAME":"TEME","TLE_LINE2":"2 53692  97.6540 236.9965 0002565  51.4403 308.7051 15.01249785 17513","OBJECT_NAME":"STARLINK-4572","CLASSIFICATION_TYPE":"U","OBJECT_TYPE":"PAYLOAD","ECCENTRICITY":"0.00025650","GP_ID":"221350082","ELEMENT_SET_NO":"999","SITE":"AFWTR","EPHEMERIS_TYPE":"0","OBJECT_ID":"2022-105AW"},{"INCLINATION":"97.6544","EPOCH":"2022-12-24T16:45:02.349504","REV_AT_EPOCH":"1755","COUNTRY_CODE":"US","FILE":"3721442","MEAN_MOTION_DOT":"0.00002186","PERIAPSIS":"561.901","BSTAR":"0.00017468000000","DECAY_DATE":null,"RA_OF_ASC_NODE":"237.2589","MEAN_MOTION_DDOT":"0.0000000000000","TIME_SYSTEM":"UTC","APOAPSIS":"564.078","RCS_SIZE":"LARGE","CENTER_NAME":"EARTH","SEMIMAJOR_AXIS":"6941.124","MEAN_ANOMALY":"305.7232","MEAN_ELEMENT_THEORY":"SGP4","PERIOD":"95.919","NORAD_CAT_ID":"53693","LAUNCH_DATE":"2022-08-31","MEAN_MOTION":"15.01267312","TLE_LINE1":"1 53693U 22105AX  22358.69794386  .00002186  00000-0  17468-3 0  9994","SITE":"AFWTR","ELEMENT_SET_NO":"999","OBJECT_ID":"2022-105AX","EPHEMERIS_TYPE":"0","GP_ID":"221382456","OBJECT_TYPE":"PAYLOAD","ECCENTRICITY":"0.00015680","TLE_LINE2":"2 53693  97.6544 237.2589 0001568  54.4138 305.7232 15.01267312 17552","OBJECT_NAME":"STARLINK-4566","REF_FRAME":"TEME","ARG_OF_PERICENTER":"54.4138","CLASSIFICATION_TYPE":"U"},{"OBJECT_ID":"2022-107A","EPHEMERIS_TYPE":"0","ELEMENT_SET_NO":"999","SITE":"AFETR","GP_ID":"221381837","ECCENTRICITY":"0.00018010","OBJECT_TYPE":"PAYLOAD","CLASSIFICATION_TYPE":"U","TLE_LINE2":"2 53700  53.2188 100.3953 0001801  51.2939 308.8214 15.08837741 18081","OBJECT_NAME":"STARLINK-4725","ARG_OF_PERICENTER":"51.2939","REF_FRAME":"TEME","PERIOD":"95.438","MEAN_ELEMENT_THEORY":"SGP4","NORAD_CAT_ID":"53700","LAUNCH_DATE":"2022-09-05","MEAN_MOTION":"15.08837741","TLE_LINE1":"1 53700U 22107A   22358.72770220  .00001039  00000-0  83358-4 0  9998","MEAN_MOTION_DDOT":"0.0000000000000","TIME_SYSTEM":"UTC","RA_OF_ASC_NODE":"100.3953","SEMIMAJOR_AXIS":"6917.887","MEAN_ANOMALY":"308.8214","CENTER_NAME":"EARTH","RCS_SIZE":"LARGE","APOAPSIS":"540.998","INCLINATION":"53.2188","EPOCH":"2022-12-24T17:27:53.470080","REV_AT_EPOCH":"1808","MEAN_MOTION_DOT":"0.00001039","COUNTRY_CODE":"US","FILE":"3721442","PERIAPSIS":"538.506","BSTAR":"0.00008335800000","DECAY_DATE":null},{"TLE_LINE1":"1 53701U 22107B   22358.65777711  .00000148  00000-0  27374-4 0  9999","MEAN_MOTION":"15.08833813","LAUNCH_DATE":"2022-09-05","NORAD_CAT_ID":"53701","MEAN_ELEMENT_THEORY":"SGP4","PERIOD":"95.438","TLE_LINE2":"2 53701  53.2166 100.6652 0001706  40.8871 319.2249 15.08833813 18079","OBJECT_NAME":"STARLINK-4711","ARG_OF_PERICENTER":"40.8871","REF_FRAME":"TEME","CLASSIFICATION_TYPE":"U","OBJECT_TYPE":"PAYLOAD","ECCENTRICITY":"0.00017060","GP_ID":"221382044","ELEMENT_SET_NO":"999","SITE":"AFETR","EPHEMERIS_TYPE":"0","OBJECT_ID":"2022-107B","PERIAPSIS":"538.584","BSTAR":"0.00002737400000","DECAY_DATE":null,"COUNTRY_CODE":"US","FILE":"3721442","MEAN_MOTION_DOT":"0.00000148","REV_AT_EPOCH":"1807","INCLINATION":"53.2166","EPOCH":"2022-12-24T15:47:11.942304","APOAPSIS":"540.944","RCS_SIZE":"LARGE","SEMIMAJOR_AXIS":"6917.899","CENTER_NAME":"EARTH","MEAN_ANOMALY":"319.2249","RA_OF_ASC_NODE":"100.6652","MEAN_MOTION_DDOT":"0.0000000000000","TIME_SYSTEM":"UTC"},{"MEAN_ANOMALY":"270.3645","SEMIMAJOR_AXIS":"6816.631","CENTER_NAME":"EARTH","APOAPSIS":"439.616","RCS_SIZE":"LARGE","TIME_SYSTEM":"UTC","MEAN_MOTION_DDOT":"0.0000000000000","RA_OF_ASC_NODE":"86.6933","REV_AT_EPOCH":"130","EPOCH":"2022-12-24T22:00:00.999936","INCLINATION":"53.2171","BSTAR":"-0.02891700000000","DECAY_DATE":null,"PERIAPSIS":"437.376","MEAN_MOTION_DOT":"-0.01164338","FILE":"3721442","COUNTRY_CODE":"US","GP_ID":"221382664","EPHEMERIS_TYPE":"0","OBJECT_ID":"2022-107C","ELEMENT_SET_NO":"999","SITE":"AFETR","CLASSIFICATION_TYPE":"U","REF_FRAME":"TEME","ARG_OF_PERICENTER":"34.1851","TLE_LINE2":"2 53702  53.2171  86.6933 0001643  34.1851 270.3645 15.42581433  1306","OBJECT_NAME":"STARLINK-4724","ECCENTRICITY":"0.00016430","OBJECT_TYPE":"PAYLOAD","LAUNCH_DATE":"2022-09-05","NORAD_CAT_ID":"53702","PERIOD":"93.350","MEAN_ELEMENT_THEORY":"SGP4","TLE_LINE1":"1 53702U 22107C   22358.91667824 -.01164338  00000-0 -28917-1 0  9998","MEAN_MOTION":"15.42581433"}];
